APRIZESAT 2             
1 28366U 04025A   22235.13735853  .00000047  00000+0  28052-4 0  9996
2 28366  98.1567 100.8422 0108411 134.1276 226.8892 14.36835600951399
SAUDICOMSAT 1           
1 28369U 04025D   22235.44694978  .00000123  00000+0  41159-4 0  9993
2 28369  98.4458 197.5199 0032856 331.8580  28.0838 14.52834016961639
SAUDICOMSAT 2           
1 28370U 04025E   22235.44371180  .00000070  00000+0  31070-4 0  9994
2 28370  98.5375 196.6932 0058073 157.6308 202.7436 14.47727105958349
APRIZESAT 1             
1 28372U 04025G   22234.71822844  .00000114  00000+0  41106-4 0  9993
2 28372  98.4985 196.1337 0047421  74.2634 286.3783 14.49827731959704
NANOSAT-1               
1 28493U 04049B   22235.16876601  .00000311  00000+0  55001-4 0  9991
2 28493  98.1152 336.0155 0005811  83.2890 276.8979 14.74068025949706
SAUDICOMSAT 7           
1 31119U 07012C   22235.07708503  .00000166  00000+0  42136-4 0  9991
2 31119  98.1872 180.3219 0058459 241.9117 117.6167 14.62141128818491
SAUDICOMSAT 6           
1 31121U 07012E   22235.10422484  .00000229  00000+0  57343-4 0  9995
2 31121  98.2279 175.6329 0075953 346.4254  13.4902 14.58923260816731
SAUDICOMSAT 5           
1 31124U 07012H   22235.40727362  .00000147  00000+0  37051-4 0  9997
2 31124  98.1564 182.1808 0051092 185.7530 174.3092 14.63866693819455
SAUDICOMSAT 3           
1 31125U 07012J   22234.63187748  .00000269  00000+0  57841-4 0  9994
2 31125  98.1220 182.8367 0043920 134.2207 226.2617 14.65693493820206
SAUDICOMSAT 4           
1 31127U 07012L   22235.42338715  .00000155  00000+0  41093-4 0  9992
2 31127  98.2100 179.0526 0066381 290.6575  68.7516 14.60653304817713
APRIZESAT 4             
1 35684U 09041D   22235.04638505  .00000256  00000+0  41116-4 0  9994
2 35684  98.3108 250.9736 0047727 136.9996 223.4960 14.79703790704968
APRIZESAT 3             
1 35686U 09041F   22235.20829541  .00000314  00000+0  39397-4 0  9999
2 35686  98.1060 323.3686 0071267 329.1646  30.5392 14.88014223708582
AISSAT 1                
1 36797U 10035C   22235.06270584  .00000626  00000+0  76150-4 0  9993
2 36797  98.2400  61.4622 0010048 319.5721  40.4746 14.87223423656478
S-NET D                 
1 43186U 18014G   22235.29225333  .00001574  00000+0  13764-3 0  9999
2 43186  97.6522 139.7423 0012821  76.3191 283.9458 14.98101583248929
S-NET B                 
1 43187U 18014H   22235.29247244  .00001552  00000+0  13581-3 0  9998
2 43187  97.6517 139.6910 0012818  76.2640 284.0008 14.98099679248923
S-NET A                 
1 43188U 18014J   22235.15918831  .00001567  00000+0  13710-3 0  9991
2 43188  97.6522 139.6275 0012810  76.8027 283.4624 14.98098836248900
S-NET C                 
1 43189U 18014K   22235.36038417  .00001486  00000+0  13027-3 0  9999
2 43189  97.6518 139.7453 0012816  75.8508 284.4137 14.98097249247483
SALSAT                  
1 46495U 20068K   22234.33396549  .00001618  00000+0  11895-3 0  9991
2 46495  97.7309 175.6732 0017714  57.1722 303.1206 15.04733690104097
